{
  "norad_id": 28702,
  "name": "GALAXY 28 (G-28)",
  "history": [
    {
      "epoch": "2026-03-28T18:04:46.353792Z",
      "apogee_km": 35796.13537351218,
      "perigee_km": 35776.877937461846,
      "latitude_deg": -0.5363319396379164,
      "longitude_deg": -27.034728361943554,
      "height_km": 35781.58343047779,
      "semi_major_axis_km": 42164.643655487016,
      "eccentricity": 0.00022836,
      "inclination_deg": 3.0911,
      "raan_deg": 79.9195,
      "arg_perigee_deg": 288.0988,
      "mean_anomaly_deg": 62.2531,
      "mean_motion_rev_day": 1.002721
    },
    {
      "epoch": "2026-03-29T04:20:52.255104Z",
      "apogee_km": 35796.13223042878,
      "perigee_km": 35776.92200945573,
      "latitude_deg": 1.7968837220489928,
      "longitude_deg": -27.04501559363112,
      "height_km": 35793.64351561345,
      "semi_major_axis_km": 42164.66411994226,
      "eccentricity": 0.0002278,
      "inclination_deg": 3.0922,
      "raan_deg": 79.9135,
      "arg_perigee_deg": 289.1949,
      "mean_anomaly_deg": 215.6108,
      "mean_motion_rev_day": 1.00272027
    },
    {
      "epoch": "2026-03-30T02:35:45.619296Z",
      "apogee_km": 35796.1661063694,
      "perigee_km": 35776.99802508212,
      "latitude_deg": 2.699471227304858,
      "longitude_deg": -27.038703398800777,
      "height_km": 35795.29607685508,
      "semi_major_axis_km": 42164.71906572576,
      "eccentricity": 0.0002273,
      "inclination_deg": 3.0946,
      "raan_deg": 79.9,
      "arg_perigee_deg": 291.0922,
      "mean_anomaly_deg": 188.3636,
      "mean_motion_rev_day": 1.00271831
    },
    {
      "epoch": "2026-03-30T09:26:21.236640Z",
      "apogee_km": 35796.17828805618,
      "perigee_km": 35777.02284777908,
      "latitude_deg": -2.063660754720873,
      "longitude_deg": -27.135792553206084,
      "height_km": 35782.95539569827,
      "semi_major_axis_km": 42164.73756791763,
      "eccentricity": 0.00022715,
      "inclination_deg": 3.0953,
      "raan_deg": 79.896,
      "arg_perigee_deg": 291.5686,
      "mean_anomaly_deg": 290.821,
      "mean_motion_rev_day": 1.00271765
    },
    {
      "epoch": "2026-03-30T21:25:11.758944Z",
      "apogee_km": 35796.22373595455,
      "perigee_km": 35777.04972674796,
      "latitude_deg": 2.073885561132464,
      "longitude_deg": -27.09073275067219,
      "height_km": 35789.24390135075,
      "semi_major_axis_km": 42164.773731351255,
      "eccentricity": 0.00022737,
      "inclination_deg": 3.0966,
      "raan_deg": 79.8892,
      "arg_perigee_deg": 292.3148,
      "mean_anomaly_deg": 110.283,
      "mean_motion_rev_day": 1.00271636
    },
    {
      "epoch": "2026-03-31T19:40:03.408096Z",
      "apogee_km": 35796.268442150045,
      "perigee_km": 35777.10874540023,
      "latitude_deg": 0.894964785692437,
      "longitude_deg": -27.073499819651218,
      "height_km": 35784.93606268257,
      "semi_major_axis_km": 42164.82559377514,
      "eccentricity": 0.0002272,
      "inclination_deg": 3.0991,
      "raan_deg": 79.8768,
      "arg_perigee_deg": 294.1013,
      "mean_anomaly_deg": 83.1379,
      "mean_motion_rev_day": 1.00271451
    },
    {
      "epoch": "2026-04-01T16:12:11.143008Z",
      "apogee_km": 35796.3321038719,
      "perigee_km": 35777.16394713931,
      "latitude_deg": -1.7381318849797625,
      "longitude_deg": -27.028858240377453,
      "height_km": 35778.185423487834,
      "semi_major_axis_km": 42164.88502550561,
      "eccentricity": 0.0002273,
      "inclination_deg": 3.1014,
      "raan_deg": 79.8655,
      "arg_perigee_deg": 295.7025,
      "mean_anomaly_deg": 30.4214,
      "mean_motion_rev_day": 1.00271239
    },
    {
      "epoch": "2026-04-02T19:35:06.480672Z",
      "apogee_km": 35796.39575537452,
      "perigee_km": 35777.22756971253,
      "latitude_deg": 0.9372531234936597,
      "longitude_deg": -27.084119734348526,
      "height_km": 35784.52928252495,
      "semi_major_axis_km": 42164.94866254353,
      "eccentricity": 0.0002273,
      "inclination_deg": 3.1044,
      "raan_deg": 79.8506,
      "arg_perigee_deg": 297.9834,
      "mean_anomaly_deg": 80.0085,
      "mean_motion_rev_day": 1.00271012
    },
    {
      "epoch": "2026-04-02T21:17:49.130880Z",
      "apogee_km": 35796.39363668648,
      "perigee_km": 35777.23809859871,
      "latitude_deg": 2.123311665290105,
      "longitude_deg": -27.10235174084859,
      "height_km": 35788.670057756135,
      "semi_major_axis_km": 42164.9528676426,
      "eccentricity": 0.00022715,
      "inclination_deg": 3.1046,
      "raan_deg": 79.8495,
      "arg_perigee_deg": 298.0934,
      "mean_anomaly_deg": 105.6474,
      "mean_motion_rev_day": 1.00270997
    },
    {
      "epoch": "2026-04-03T19:32:38.570784Z",
      "apogee_km": 35796.46420528937,
      "perigee_km": 35777.2706952636,
      "latitude_deg": 0.9593745841990393,
      "longitude_deg": -27.08951474793505,
      "height_km": 35784.343466757586,
      "semi_major_axis_km": 42165.00445027649,
      "eccentricity": 0.0002276,
      "inclination_deg": 3.1071,
      "raan_deg": 79.8376,
      "arg_perigee_deg": 299.7833,
      "mean_anomaly_deg": 78.5866,
      "mean_motion_rev_day": 1.00270813
    }
  ]
}